KUIPER-00133            
1 65764U 25217C   26023.93377803  .00002831  00000+0  40023-3 0  9993
2 65764  51.9047 251.0161 0002307 185.6234 174.4702 14.79940944 18110
KUIPER-00139            
1 65765U 25217D   26023.59722207  .00008473  00000+0  65248-3 0  9992
2 65765  51.8836 240.2727 0008147 163.2028 196.9215 15.02362947 18234
KUIPER-00142            
1 65766U 25217E   26023.85152603  .00003774  00000+0  52359-3 0  9997
2 65766  51.8977 233.8703 0000105  36.4978 323.5991 14.79943032 18348
KUIPER-00145            
1 65767U 25217F   26023.84875528 -.00002010  00000+0 -23443-3 0  9991
2 65767  51.8971 236.3935 0001544  76.7333 283.3801 14.79969944 18307
KUIPER-00147            
1 65768U 25217G   26023.60968756  .00004606  00000+0  63241-3 0  9993
2 65768  51.8971 239.9508 0000677 123.7757 236.3270 14.79957151 18239
KUIPER-00148            
1 65769U 25217H   26022.99692451  .00009815  00000+0  62300-3 0  9993
2 65769  51.8765 236.4244 0009895 188.2591 171.8222 15.09425464 18234
KUIPER-00150            
1 65770U 25217J   26023.32877890  .00004832  00000+0  66136-3 0  9990
2 65770  51.8999 251.1876 0001047  98.3039 261.8043 14.79997705 18058
KUIPER-00151            
1 65771U 25217K   26023.60698962  .00004568  00000+0  62745-3 0  9991
2 65771  51.9000 242.4538 0000954 109.7540 250.3525 14.79954952 18203
